{
    "satellites": [
        {
            "name": "starlink367",
            "title": "Starlink-367 (G10-46) (new)",
            "tle": [
                "1 70161C 26054AE  26082.33520833 -.01964800  00000+0 -43452-2 0   829",
                "2 70161  53.1599 244.3096 0000375  81.9650 196.3839 15.98253729    12"
            ],
            "stdMag": 5,
            "noradId": "70161",
            "intDes": null,
            "tleUrl": "http://celestrak.org/NORAD/elements/supplemental/sup-gp.php?FILE=starlink&FORMAT=tle",
            "launchDate": "2026-03-17T13:27:34.000Z",
            "active": true
        },
        {
            "name": "starlink366",
            "title": "Starlink-366 (G17-24) (new)",
            "tle": [
                "1 70184C 26053Y   26082.41923611 -.01864200  00000+0 -36511-2 0   824",
                "2 70184  97.2773 317.2560 0001376 104.8472 243.4108 16.01125979    18"
            ],
            "stdMag": 5,
            "noradId": "70184",
            "intDes": null,
            "tleUrl": "http://celestrak.org/NORAD/elements/supplemental/sup-gp.php?FILE=starlink&FORMAT=tle",
            "launchDate": "2026-03-17T05:19:09.000Z",
            "active": true
        },
        {
            "name": "starlink365",
            "title": "Starlink-365 (G10-48)",
            "tle": [
                "1 68167C 26050A   26082.32965278  .00116050  00000+0  58695-3 0   822",
                "2 68167  53.1602 213.4819 0000511  67.7416 208.7515 15.80808165    14"
            ],
            "stdMag": 5,
            "noradId": "68167",
            "intDes": null,
            "tleUrl": "http://celestrak.org/NORAD/elements/supplemental/sup-gp.php?FILE=starlink&FORMAT=tle",
            "launchDate": "2026-03-14T12:37:10.000Z",
            "active": true,
            "batch": [
                {
                    "noradId": "68167",
                    "tle": [
                        "1 68167C 26050A   26082.32965278  .00116050  00000+0  58695-3 0   822",
                        "2 68167  53.1602 213.4819 0000511  67.7416 208.7515 15.80808165    14"
                    ]
                },
                {
                    "noradId": "68168",
                    "tle": [
                        "1 68168C 26050B   26082.40881944  .00191470  00000+0  96723-3 0   822",
                        "2 68168  53.1603 213.0769 0001734  77.3536 294.1951 15.80794863    16"
                    ]
                },
                {
                    "noradId": "68169",
                    "tle": [
                        "1 68169C 26050C   26082.43798611  .00071723  00000+0  36297-3 0   822",
                        "2 68169  53.1603 212.9219 0001130 100.3688  81.5585 15.80817391    13"
                    ]
                },
                {
                    "noradId": "68170",
                    "tle": [
                        "1 68170C 26050D   26082.38381944 -.00175690  00000+0 -88776-3 0   824",
                        "2 68170  53.1603 213.1842 0000751  80.1965 157.5106 15.80974120    18"
                    ]
                }
            ]
        },
        {
            "name": "starlink364",
            "title": "Starlink-364 (G17-31)",
            "tle": [
                "1 68142C 26049A   26082.40604167 -.01814100  00000+0 -71624-2 0   829",
                "2 68142  97.2796 102.2683 0001188  88.3861 270.9173 15.87725445    15"
            ],
            "stdMag": 5,
            "noradId": "68142",
            "intDes": null,
            "tleUrl": "http://celestrak.org/NORAD/elements/supplemental/sup-gp.php?FILE=starlink&FORMAT=tle",
            "launchDate": "2026-03-13T14:57:59.000Z",
            "active": true,
            "batch": [
                {
                    "noradId": "68142",
                    "tle": [
                        "1 68142C 26049A   26082.40604167 -.01814100  00000+0 -71624-2 0   829",
                        "2 68142  97.2796 102.2683 0001188  88.3861 270.9173 15.87725445    15"
                    ]
                },
                {
                    "noradId": "68143",
                    "tle": [
                        "1 68143C 26049B   26082.41923611 -.01800100  00000+0 -70680-2 0   825",
                        "2 68143  97.2797 102.2835 0001336  89.8931 347.9364 15.87831053    15"
                    ]
                }
            ]
        }
    ],
    "config": {}
}